STARLINK-31448          
1 59611U 24080L   26068.30660454 -.00000110  00000+0  55219-5 0  9995
2 59611  43.0048  36.6460 0001473 247.8128 112.2567 15.27580783104516
FOSSASAT-2E20 (TAT-O)   
1 63003U 25009DN  26068.70855016  .00016337  00000+0  61863-3 0  9998
2 63003  97.3231 146.2859 0002189 347.5575  12.5610 15.26991080121314
