[{"OBJECT_NAME":"STARLINK-31448","OBJECT_ID":"2024-080L","EPOCH":"2026-03-09T07:21:30.632256","MEAN_MOTION":15.27580783,"ECCENTRICITY":0.00014735,"INCLINATION":43.0048,"RA_OF_ASC_NODE":36.646,"ARG_OF_PERICENTER":247.8128,"MEAN_ANOMALY":112.2567,"EPHEMERIS_TYPE":0,"CLASSIFICATION_TYPE":"U","NORAD_CAT_ID":59611,"ELEMENT_SET_NO":999,"REV_AT_EPOCH":10451,"BSTAR":5.521944e-6,"MEAN_MOTION_DOT":-1.1e-6,"MEAN_MOTION_DDOT":0},{"OBJECT_NAME":"FOSSASAT-2E20 (TAT-O)","OBJECT_ID":"2025-009DN","EPOCH":"2026-03-09T17:00:18.734688","MEAN_MOTION":15.2699108,"ECCENTRICITY":0.00021892,"INCLINATION":97.3231,"RA_OF_ASC_NODE":146.2859,"ARG_OF_PERICENTER":347.5575,"MEAN_ANOMALY":12.561,"EPHEMERIS_TYPE":0,"CLASSIFICATION_TYPE":"U","NORAD_CAT_ID":63003,"ELEMENT_SET_NO":999,"REV_AT_EPOCH":12131,"BSTAR":0.00061862572,"MEAN_MOTION_DOT":0.00016337,"MEAN_MOTION_DDOT":0}]
